*******************************************************************************
JPL/HORIZONS               216 Kleopatra (A880 GB)         2020-Jun-22 08:41:28
Rec #:     216 (+COV) Soln.date: 2020-May-20_01:01:07   # obs: 3288 (1880-2020)
 
IAU76/J2000 helio. ecliptic osc. elements (au, days, deg., period=Julian yrs):
 
  EPOCH=  2453223.5 ! 2004-Aug-06.00 (TDB)         Residual RMS= .21345
   EC= .2520048910614338   QR= 2.089177217157979   TP= 2453138.8390798937
   OM= 215.6718630548046   W=  179.1008781529981   IN= 13.13550357567419
   A= 2.793035933246411    MA= 17.87607933576206   ADIST= 3.496894649334843
   PER= 4.66792            N= .211149121           ANGMOM= .027820959
   DAN= 3.49675            DDN= 2.08923            L= 34.7962626
   B= .2043207             MOID= 1.09542           TP= 2004-May-13.3390798937
 
Asteroid physical parameters (km, seconds, rotational period in hours):
   GM= n.a.                RAD= 61.                ROTPER= 5.385
   H= 7.3                  G= .290                 B-V= .713
                           ALBEDO= .1164           STYP= Xe
 
ASTEROID comments: 
1: soln ref.= JPL#117, OCC=0           radar( 1 delay, 0 Dop.)
2: source=ORB
*******************************************************************************
 
 
*******************************************************************************
Ephemeris / WWW_USER Mon Jun 22 08:41:28 2020 Pasadena, USA      / Horizons
*******************************************************************************
Target body name: 216 Kleopatra (A880 GB)         {source: JPL#117}
Center body name: Solar System Barycenter (0)     {source: DE431}
Center-site name: BODY CENTER
*******************************************************************************
Start time      : A.D. 1969-Jun-28 00:00:00.0000 TDB
Stop  time      : A.D. 2071-May-04 00:00:00.0000 TDB
Step-size       : 7200 minutes
*******************************************************************************
Center geodetic : 0.00000000,0.00000000,0.0000000 {E-lon(deg),Lat(deg),Alt(km)}
Center cylindric: 0.00000000,0.00000000,0.0000000 {E-lon(deg),Dxy(km),Dz(km)}
Center radii    : (undefined)                                                  
Small perturbers: Yes                             {source: SB431-N16}
Output units    : AU-D
Output type     : GEOMETRIC cartesian states
Output format   : 2 (position and velocity)
Reference frame : Ecliptic of J2000.0
*******************************************************************************
Initial IAU76/J2000 heliocentric ecliptic osculating elements (au, days, deg.):
  EPOCH=  2453223.5 ! 2004-Aug-06.00 (TDB)         Residual RMS= .21345        
   EC= .2520048910614338   QR= 2.089177217157979   TP= 2453138.8390798937      
   OM= 215.6718630548046   W=  179.1008781529981   IN= 13.13550357567419       
  Equivalent ICRF heliocentric equatorial cartesian coordinates (au, au/d):
   X= 9.201764509320696E-01  Y= 1.862978006687784E+00  Z= 5.461213718557708E-01
  VX=-1.099520660319361E-02 VY= 6.973220081113642E-03 VZ= 6.513142712101299E-05
Asteroid physical parameters (km, seconds, rotational period in hours):        
   GM= n.a.                RAD= 61.                ROTPER= 5.385               
   H= 7.3                  G= .290                 B-V= .713                   
                           ALBEDO= .1164           STYP= Xe                    
*******************************************************************************
            JDTDB,            Calendar Date (TDB),        delta-T,                      X,                      Y,                      Z,                     VX,                     VY,                     VZ,
******************************************************************************************************************************************************************************************************************
$$SOE
2463080.500000000, A.D. 2031-Aug-02 00:00:00.0000,      69.183249,  1.385241960558270E+00, -2.197775222143610E+00,  6.041286940420582E-01,  7.447794996011782E-03,  7.753891120833748E-03, -4.751408862045611E-04,
2463085.500000000, A.D. 2031-Aug-07 00:00:00.0000,      69.183123,  1.422207266655321E+00, -2.158578792094840E+00,  6.016350566145310E-01,  7.337573165608216E-03,  7.924589969177815E-03, -5.223977848920695E-04,
2463090.500000000, A.D. 2031-Aug-12 00:00:00.0000,      69.183005,  1.458610085940268E+00, -2.118530320697880E+00,  5.989038875934884E-01,  7.222787598499921E-03,  8.094689695885888E-03, -5.701518065820186E-04,
2463095.500000000, A.D. 2031-Aug-17 00:00:00.0000,      69.182895,  1.494427410392265E+00, -2.077633077413700E+00,  5.959327280542286E-01,  7.103362718322457E-03,  8.264079876748343E-03, -6.183920861323909E-04,
2463100.500000000, A.D. 2031-Aug-22 00:00:00.0000,      69.182793,  1.529635856692470E+00, -2.035890897199885E+00,  5.927191762845977E-01,  6.979224023972205E-03,  8.432644711636756E-03, -6.671065932814449E-04,
2463105.500000000, A.D. 2031-Aug-27 00:00:00.0000,      69.182698,  1.564211672242952E+00, -1.993308207771914E+00,  5.892608937681334E-01,  6.850298349999013E-03,  8.600262872597833E-03, -7.162820692740009E-04,
2463110.500000000, A.D. 2031-Sep-01 00:00:00.0000,      69.182612,  1.598130742538278E+00, -1.949890057611594E+00,  5.855556114893766E-01,  6.716514147364211E-03,  8.766807357082317E-03, -7.659039613835128E-04,
2463115.500000000, A.D. 2031-Sep-06 00:00:00.0000,      69.182534,  1.631368599992636E+00, -1.905642144693926E+00,  5.816011365714111E-01,  6.577801784950621E-03,  8.932145347587033E-03, -8.159563555596075E-04,
2463120.500000000, A.D. 2031-Sep-11 00:00:00.0000,      69.182469,  1.663900434326954E+00, -1.860570845896125E+00,  5.773953592538947E-01,  6.434093872097076E-03,  9.096138079507651E-03, -8.664219076812354E-04,
2463125.500000000, A.D. 2031-Sep-16 00:00:00.0000,      69.182416,  1.695701104622034E+00, -1.814683247042139E+00,  5.729362602170800E-01,  6.285325602561452E-03,  9.258640719472390E-03, -9.172817739936514E-04,
2463130.500000000, A.D. 2031-Sep-21 00:00:00.0000,      69.182375,  1.726745153146599E+00, -1.767987173524605E+00,  5.682219182548617E-01,  6.131435120674682E-03,  9.419502256379756E-03, -9.685155410998661E-04,
2463135.500000000, A.D. 2031-Sep-26 00:00:00.0000,      69.182345,  1.757006821073263E+00, -1.720491221435840E+00,  5.632505182985954E-01,  5.972363910455727E-03,  9.578565407052297E-03, -1.020101155690347E-03,
2463140.500000000, A.D. 2031-Oct-01 00:00:00.0000,      69.182325,  1.786460066198379E+00, -1.672204789129951E+00,  5.580203597923790E-01,  5.808057208079965E-03,  9.735666538498441E-03, -1.072014854293303E-03,
2463145.500000000, A.D. 2031-Oct-06 00:00:00.0000,      69.182317,  1.815078582782878E+00, -1.623138109127285E+00,  5.525298654186120E-01,  5.638464437817101E-03,  9.890635609128909E-03, -1.124231093495837E-03,
2463150.500000000, A.D. 2031-Oct-11 00:00:00.0000,      69.182323,  1.842835823631480E+00, -1.573302280260111E+00,  5.467775901702190E-01,  5.463539671427206E-03,  1.004329613148452E-02, -1.176722481143291E-03,
2463155.500000000, A.D. 2031-Oct-16 00:00:00.0000,      69.182343,  1.869705024527224E+00, -1.522709299945330E+00,  5.407622307633267E-01,  5.283242110852607E-03,  1.019346515915215E-02, -1.229459709050183E-03,
2463160.500000000, A.D. 2031-Oct-21 00:00:00.0000,      69.182375,  1.895659231136983E+00, -1.471372096456353E+00,  5.344826353814259E-01,  5.097536593837070E-03,  1.034095330065449E-02, -1.282411487793767E-03,
2463165.500000000, A.D. 2031-Oct-26 00:00:00.0000,      69.182418,  1.920671328501166E+00, -1.419304561052095E+00,  5.279378137390804E-01,  4.906394121852876E-03,  1.048556476320489E-02, -1.335544484210751E-03,
2463170.500000000, A.D. 2031-Oct-31 00:00:00.0000,      69.182471,  1.944714073216971E+00, -1.366521579806329E+00,  5.211269474499872E-01,  4.709792409420360E-03,  1.062709742931278E-02, -1.388823262278775E-03,
2463175.500000000, A.D. 2031-Nov-05 00:00:00.0000,      69.182536,  1.967760128419178E+00, -1.313039064965506E+00,  5.140494006806032E-01,  4.507716453554104E-03,  1.076534296931050E-02, -1.442210228143872E-03,
2463180.500000000, A.D. 2031-Nov-10 00:00:00.0000,      69.182614,  1.989782101655062E+00, -1.258873985647554E+00,  5.067047310664738E-01,  4.300159121649323E-03,  1.090008699297748E-02, -1.495665580168178E-03,
2463185.500000000, A.D. 2031-Nov-15 00:00:00.0000,      69.182703,  2.010752585740529E+00, -1.204044397677869E+00,  4.990927008637282E-01,  4.087121755705107E-03,  1.103110924361735E-02, -1.549147264989149E-03,
2463190.500000000, A.D. 2031-Nov-20 00:00:00.0000,      69.182802,  2.030644202673266E+00, -1.148569472341429E+00,  4.912132883031122E-01,  3.868614790498038E-03,  1.115818383812294E-02, -1.602610940601733E-03,
2463195.500000000, A.D. 2031-Nov-25 00:00:00.0000,      69.182909,  2.049429650666552E+00, -1.092469523812363E+00,  4.830666991092770E-01,  3.644658383258305E-03,  1.128107955647394E-02, -1.656009947296341E-03,
2463200.500000000, A.D. 2031-Nov-30 00:00:00.0000,      69.183023,  2.067081754354685E+00, -1.035766035006325E+00,  4.746533781443338E-01,  3.415283052138521E-03,  1.139956018352730E-02, -1.709295287125384E-03,
2463205.500000000, A.D. 2031-Dec-05 00:00:00.0000,      69.183144,  2.083573518205551E+00, -9.784816815882972E-01,  4.659740211310092E-01,  3.180530319896399E-03,  1.151338490544929E-02, -1.762415612792911E-03,
2463210.500000000, A.D. 2031-Dec-10 00:00:00.0000,      69.183274,  2.098878183154769E+00, -9.206403538562870E-01,  4.570295864048939E-01,  2.940453357956423E-03,  1.162230876342050E-02, -1.815317227398783E-03,
2463215.500000000, A.D. 2031-Dec-15 00:00:00.0000,      69.183410,  2.112969286449790E+00, -8.622671762065978E-01,  4.478213066374785E-01,  2.695117625434141E-03,  1.172608316785823E-02, -1.867944096617593E-03,
